[{"OBJECT_NAME":"STARLINK-2220","OBJECT_ID":"2021-041T","EPOCH":"2026-03-09T11:39:58.315104","MEAN_MOTION":15.06409264,"ECCENTRICITY":0.00017442,"INCLINATION":53.0558,"RA_OF_ASC_NODE":142.5323,"ARG_OF_PERICENTER":101.5349,"MEAN_ANOMALY":258.5836,"EPHEMERIS_TYPE":0,"CLASSIFICATION_TYPE":"U","NORAD_CAT_ID":48570,"ELEMENT_SET_NO":999,"REV_AT_EPOCH":26502,"BSTAR":0.00039376047,"MEAN_MOTION_DOT":5.59e-5,"MEAN_MOTION_DDOT":0},{"OBJECT_NAME":"CZ-6A DEB","OBJECT_ID":"2024-126C","EPOCH":"2026-03-09T22:45:09.534528","MEAN_MOTION":15.08339588,"ECCENTRICITY":0.00034995,"INCLINATION":97.8272,"RA_OF_ASC_NODE":88.0703,"ARG_OF_PERICENTER":249.9832,"MEAN_ANOMALY":110.1019,"EPHEMERIS_TYPE":0,"CLASSIFICATION_TYPE":"U","NORAD_CAT_ID":60213,"ELEMENT_SET_NO":999,"REV_AT_EPOCH":9177,"BSTAR":0.0010886629,"MEAN_MOTION_DOT":0.00016868,"MEAN_MOTION_DDOT":0}]
